{
  "type": "FeatureCollection",
  "features": [
    {
      "type": "Feature",
      "properties": {
        "norad_id": 35052,
        "name": "IRIDIUM 33 DEB",
        "group": "iridium-33-debris",
        "lat": 61.60655781313732,
        "lon": -163.35919421551068,
        "alt_km": 748.182074278473,
        "timestamp": "2025-12-05T18:53:13.666081+00:00",
        "meta_object_name": "IRIDIUM 33 DEB",
        "meta_object_id": "1997-051NY",
        "meta_epoch": "2025-12-04T20:38:14.764704",
        "meta_mean_motion": 14.38478571,
        "meta_eccentricity": 0.0013621,
        "meta_inclination": 86.3316,
        "meta_ra_of_asc_node": 23.8542,
        "meta_arg_of_pericenter": 106.9628,
        "meta_mean_anomaly": 253.3064,
        "meta_ephemeris_type": 0,
        "meta_classification_type": "U",
        "meta_norad_cat_id": 35052,
        "meta_element_set_no": 999,
        "meta_rev_at_epoch": 87162,
        "meta_bstar": 0.00036777,
        "meta_mean_motion_dot": 1.143e-05,
        "meta_mean_motion_ddot": 0,
        "tle_line1": "1 35052U 97051NY  25338.85989311  .00001143  00000+0  36777-3 0  9993",
        "tle_line2": "2 35052  86.3316  23.8542 0013621 106.9628 253.3064 14.38478571871628"
      },
      "geometry": {
        "type": "Point",
        "coordinates": [
          -163.35919421551068,
          61.60655781313732
        ]
      }
    },
    {
      "type": "Feature",
      "properties": {
        "norad_id": 35080,
        "name": "IRIDIUM 33 DEB",
        "group": "iridium-33-debris",
        "lat": -21.001769055462997,
        "lon": -122.84434411776991,
        "alt_km": 575.988360107357,
        "timestamp": "2025-12-05T18:53:13.666097+00:00",
        "meta_object_name": "IRIDIUM 33 DEB",
        "meta_object_id": "1997-051PF",
        "meta_epoch": "2025-12-05T05:02:32.893152",
        "meta_mean_motion": 14.84584595,
        "meta_eccentricity": 0.00628471,
        "meta_inclination": 86.2078,
        "meta_ra_of_asc_node": 55.9716,
        "meta_arg_of_pericenter": 205.0492,
        "meta_mean_anomaly": 154.768,
        "meta_ephemeris_type": 0,
        "meta_classification_type": "U",
        "meta_norad_cat_id": 35080,
        "meta_element_set_no": 999,
        "meta_rev_at_epoch": 69576,
        "meta_bstar": 0.013486204,
        "meta_mean_motion_dot": 0.0011973,
        "meta_mean_motion_ddot": 0,
        "tle_line1": "1 35080U 97051PF  25339.21010293  .00119730  00000+0  13486-1 0  9991",
        "tle_line2": "2 35080  86.2078  55.9716 0062847 205.0492 154.7680 14.84584595695768"
      },
      "geometry": {
        "type": "Point",
        "coordinates": [
          -122.84434411776991,
          -21.001769055462997
        ]
      }
    },
    {
      "type": "Feature",
      "properties": {
        "norad_id": 35297,
        "name": "IRIDIUM 33 DEB",
        "group": "iridium-33-debris",
        "lat": -38.903569295587694,
        "lon": -111.3498316743006,
        "alt_km": 742.0924455168733,
        "timestamp": "2025-12-05T18:53:13.666113+00:00",
        "meta_object_name": "IRIDIUM 33 DEB",
        "meta_object_id": "1997-051PM",
        "meta_epoch": "2025-11-28T13:02:32.385696",
        "meta_mean_motion": 14.4505178,
        "meta_eccentricity": 0.00162447,
        "meta_inclination": 86.3859,
        "meta_ra_of_asc_node": 68.817,
        "meta_arg_of_pericenter": 185.2069,
        "meta_mean_anomaly": 174.8967,
        "meta_ephemeris_type": 0,
        "meta_classification_type": "U",
        "meta_norad_cat_id": 35297,
        "meta_element_set_no": 999,
        "meta_rev_at_epoch": 70221,
        "meta_bstar": 0.00072341306,
        "meta_mean_motion_dot": 2.549e-05,
        "meta_mean_motion_ddot": 0,
        "tle_line1": "1 35297U 97051PM  25332.54343039  .00002549  00000+0  72341-3 0  9993",
        "tle_line2": "2 35297  86.3859  68.8170 0016244 185.2069 174.8967 14.45051780702214"
      },
      "geometry": {
        "type": "Point",
        "coordinates": [
          -111.3498316743006,
          -38.903569295587694
        ]
      }
    },
    {
      "type": "Feature",
      "properties": {
        "norad_id": 35299,
        "name": "IRIDIUM 33 DEB",
        "group": "iridium-33-debris",
        "lat": -79.00500584154773,
        "lon": -124.27363837348767,
        "alt_km": 792.8792618881798,
        "timestamp": "2025-12-05T18:53:13.666128+00:00",
        "meta_object_name": "IRIDIUM 33 DEB",
        "meta_object_id": "1997-051PP",
        "meta_epoch": "2025-12-04T22:15:32.154336",
        "meta_mean_motion": 14.40800476,
        "meta_eccentricity": 0.0058727,
        "meta_inclination": 86.2893,
        "meta_ra_of_asc_node": 36.5873,
        "meta_arg_of_pericenter": 127.2291,
        "meta_mean_anomaly": 356.5642,
        "meta_ephemeris_type": 0,
        "meta_classification_type": "U",
        "meta_norad_cat_id": 35299,
        "meta_element_set_no": 999,
        "meta_rev_at_epoch": 86218,
        "meta_bstar": 0.0017577,
        "meta_mean_motion_dot": 5.762e-05,
        "meta_mean_motion_ddot": 0,
        "tle_line1": "1 35299U 97051PP  25338.92745549  .00005762  00000+0  17577-2 0  9994",
        "tle_line2": "2 35299  86.2893  36.5873 0058727 127.2291 356.5642 14.40800476862181"
      },
      "geometry": {
        "type": "Point",
        "coordinates": [
          -124.27363837348767,
          -79.00500584154773
        ]
      }
    },
    {
      "type": "Feature",
      "properties": {
        "norad_id": 35480,
        "name": "IRIDIUM 33 DEB",
        "group": "iridium-33-debris",
        "lat": 43.13073772378644,
        "lon": -155.4944921483614,
        "alt_km": 712.3516550988234,
        "timestamp": "2025-12-05T18:53:13.666144+00:00",
        "meta_object_name": "IRIDIUM 33 DEB",
        "meta_object_id": "1997-051QA",
        "meta_epoch": "2025-12-01T21:29:27.496896",
        "meta_mean_motion": 14.49686619,
        "meta_eccentricity": 0.00155495,
        "meta_inclination": 86.3575,
        "meta_ra_of_asc_node": 29.6125,
        "meta_arg_of_pericenter": 136.7189,
        "meta_mean_anomaly": 223.524,
        "meta_ephemeris_type": 0,
        "meta_classification_type": "U",
        "meta_norad_cat_id": 35480,
        "meta_element_set_no": 999,
        "meta_rev_at_epoch": 86874,
        "meta_bstar": 0.000651702,
        "meta_mean_motion_dot": 2.53e-05,
        "meta_mean_motion_ddot": 0,
        "tle_line1": "1 35480U 97051QA  25335.89545714  .00002530  00000+0  65170-3 0  9994",
        "tle_line2": "2 35480  86.3575  29.6125 0015549 136.7189 223.5240 14.49686619868745"
      },
      "geometry": {
        "type": "Point",
        "coordinates": [
          -155.4944921483614,
          43.13073772378644
        ]
      }
    },
    {
      "type": "Feature",
      "properties": {
        "norad_id": 35484,
        "name": "IRIDIUM 33 DEB",
        "group": "iridium-33-debris",
        "lat": 13.058828672521066,
        "lon": 175.15367228845432,
        "alt_km": 560.5305936457162,
        "timestamp": "2025-12-05T18:53:13.666159+00:00",
        "meta_object_name": "IRIDIUM 33 DEB",
        "meta_object_id": "1997-051QE",
        "meta_epoch": "2025-12-01T19:32:14.692416",
        "meta_mean_motion": 14.97587734,
        "meta_eccentricity": 0.00218288,
        "meta_inclination": 86.3628,
        "meta_ra_of_asc_node": 357.8533,
        "meta_arg_of_pericenter": 162.6444,
        "meta_mean_anomaly": 197.5538,
        "meta_ephemeris_type": 0,
        "meta_classification_type": "U",
        "meta_norad_cat_id": 35484,
        "meta_element_set_no": 999,
        "meta_rev_at_epoch": 61852,
        "meta_bstar": 0.0025030806,
        "meta_mean_motion_dot": 0.00029486,
        "meta_mean_motion_ddot": 0,
        "tle_line1": "1 35484U 97051QE  25335.81405894  .00029486  00000+0  25031-2 0  9994",
        "tle_line2": "2 35484  86.3628 357.8533 0021828 162.6444 197.5538 14.97587734618526"
      },
      "geometry": {
        "type": "Point",
        "coordinates": [
          175.15367228845432,
          13.058828672521066
        ]
      }
    },
    {
      "type": "Feature",
      "properties": {
        "norad_id": 35488,
        "name": "IRIDIUM 33 DEB",
        "group": "iridium-33-debris",
        "lat": -58.576049735773864,
        "lon": -61.95826314548416,
        "alt_km": 639.4262323809844,
        "timestamp": "2025-12-05T18:53:13.666175+00:00",
        "meta_object_name": "IRIDIUM 33 DEB",
        "meta_object_id": "1997-051QJ",
        "meta_epoch": "2025-12-03T15:19:15.802176",
        "meta_mean_motion": 14.8268507,
        "meta_eccentricity": 0.00306986,
        "meta_inclination": 86.3233,
        "meta_ra_of_asc_node": 305.0732,
        "meta_arg_of_pericenter": 71.607,
        "meta_mean_anomaly": 288.8486,
        "meta_ephemeris_type": 0,
        "meta_classification_type": "U",
        "meta_norad_cat_id": 35488,
        "meta_element_set_no": 999,
        "meta_rev_at_epoch": 88131,
        "meta_bstar": 0.0020184012,
        "meta_mean_motion_dot": 0.00016455,
        "meta_mean_motion_ddot": 0,
        "tle_line1": "1 35488U 97051QJ  25337.63837734  .00016455  00000+0  20184-2 0  9998",
        "tle_line2": "2 35488  86.3233 305.0732 0030698  71.6070 288.8486 14.82685070881318"
      },
      "geometry": {
        "type": "Point",
        "coordinates": [
          -61.95826314548416,
          -58.576049735773864
        ]
      }
    }
  ]
}